CUTE-1 (CO-55)          
1 27844U 03031E   25147.96182749  .00000302  00000+0  15075-3 0  9992
2 27844  98.6758 156.3984 0008790 218.2973 141.7582 14.23986221136840
CUBESAT XI-IV (CO-57)   
1 27848U 03031J   25148.74792050  .00000268  00000+0  13746-3 0  9999
2 27848  98.6787 157.1890 0008467 234.9559 125.0826 14.23322762136689
CUBESAT XI-V            
1 28895U 05043F   25148.95450210  .00001416  00000+0  23905-3 0  9993
2 28895  98.2483 293.1606 0014080 349.0930  10.9968 14.70974513 45469
CUTE-1.7+APD II (CO-65) 
1 32785U 08021C   25149.16471624  .00004431  00000+0  32240-3 0  9993
2 32785  97.7849 120.2460 0007745 246.1793 113.8621 15.04314342927435
CANX-2                  
1 32790U 08021H   25148.97511544  .00003677  00000+0  28776-3 0  9993
2 32790  97.8230 118.6346 0010442 243.3318 116.6837 15.01639601927154
SEEDS II (CO-66)        
1 32791U 08021J   25148.38164207  .00011798  00000+0  57653-3 0  9998
2 32791  97.7271 128.1546 0003303 175.2390 184.8876 15.18401605928721
SWISSCUBE               
1 35932U 09051B   25148.64800960  .00001117  00000+0  23619-3 0  9993
2 35932  98.4317  44.6588 0006530 340.3228  19.7720 14.61306122833014
BEESAT-1                
1 35933U 09051C   25148.61761448  .00000927  00000+0  20016-3 0  9994
2 35933  98.4248  45.0031 0005296 357.2760   2.8410 14.60724815833103
ITUPSAT1                
1 35935U 09051E   25148.96745854  .00000836  00000+0  18620-3 0  9994
2 35935  98.4342  44.9094 0007665   0.3093 359.8109 14.59524720832676
TISAT 1                 
1 36799U 10035E   25148.25335378  .00011566  00000+0  59993-3 0  9995
2 36799  98.0600  61.5432 0004735 121.1764 238.9932 15.16321803809307
AEROCUBE 4.5A           
1 38767U 12048K   25148.85167651  .00023489  00000+0  63219-3 0  9994
2 38767  64.6483 264.4717 0100241 278.4028  80.5750 15.32835913313028
STRAND-1                
1 39090U 13009E   25148.48857283  .00000293  00000+0  11383-3 0  9991
2 39090  98.3824 333.5026 0007655 305.9035  54.1441 14.36809032641812
BRITE-AUSTRIA           
1 39091U 13009F   25148.76850226  .00000179  00000+0  75909-4 0  9991
2 39091  98.3882 333.0303 0009294 312.9776  47.0631 14.36304074641864
NEE-01 PEGASO           
1 39151U 13018B   25148.90541381  .00003018  00000+0  31268-3 0  9997
2 39151  98.0721 277.4944 0012939 354.5223   5.5851 14.90759712653400
POPACS 1                
1 39268U 13055D   25148.30395851  .00091511  10146-5  82895-3 0  9995
2 39268  80.9713 102.0635 0246298  26.8772 334.4978 15.37998252612747
POPACS 2                
1 39269U 13055E   25148.44470425  .00014659  00000+0  28904-3 0  9993
2 39269  80.9960 219.2175 0477258 335.2710  22.6264 14.75547740606181
POPACS 3                
1 39270U 13055F   25148.60738001  .00015834  00000+0  39914-3 0  9999
2 39270  81.0044 283.4406 0586027 154.0979 209.0850 14.47595369582754
ZACUBE-1 (TSHEPISOSAT)  
1 39417U 13066B   25149.15324450  .00005052  00000+0  44012-3 0  9990
2 39417  97.7796 106.2284 0046173  90.3588 270.2924 14.96522273623208
WNISAT-1                
1 39423U 13066H   25148.91967213  .00000566  00000+0  11337-3 0  9999
2 39423  97.6770 321.7175 0165501   2.6342 357.5691 14.57087054610756
TRITON-1                
1 39427U 13066M   25149.03784081  .00003533  00000+0  44963-3 0  9995
2 39427  97.8381  63.1038 0095922  44.6473 316.2412 14.78980810617446
GOMX-1                  
1 39430U 13066Q   25149.16807741  .00001590  00000+0  25404-3 0  9992
2 39430  97.6847   8.5330 0131345 228.5902 130.3957 14.67590641613737
CUBEBUG-2 (LO-74)       
1 39440U 13066AA  25149.12596454  .00003390  00000+0  34672-3 0  9992
2 39440  97.8496  93.7669 0060971 216.7300 142.9732 14.89853191620934
NEE-02 KRYSAOR          
1 39441U 13066AB  25148.31630247  .00001723  00000+0  20395-3 0  9997
2 39441  97.8556  86.8566 0067460 250.0192 109.3748 14.84314468619061
FUNCUBE-1 (AO-73)       
1 39444U 13066AE  25149.15701127  .00008002  00000+0  59992-3 0  9991
2 39444  97.7841 111.0277 0044272  66.7599 293.8278 15.02150735622460
UWE-3                   
1 39446U 13066AG  25148.60573129  .00003901  00000+0  37237-3 0  9992
2 39446  97.8237  99.5975 0053904 157.0572 203.3073 14.92797089620716
BRITE-CA1 (TORONTO)     
1 40020U 14033L   25148.94564494  .00000980  00000+0  15756-3 0  9995
2 40020  97.9243 281.4624 0081395  67.3479 293.6310 14.71599929585795
DUCHIFAT-1              
1 40021U 14033M   25148.93660496  .00021287  00000+0  77899-3 0  9993
2 40021  98.0946 162.2671 0008508  12.6745 347.4704 15.28047921596543
NANOSATC-BR1            
1 40024U 14033Q   25148.87374581  .00013203  00000+0  65114-3 0  9992
2 40024  98.0899 145.9889 0006716  80.8068 279.3924 15.18049356595433
QB50P1                  
1 40025U 14033R   25149.21379503  .00008346  00000+0  51264-3 0  9994
2 40025  98.0828 131.1767 0012450  93.3580 266.9072 15.10301666595431
QB50P2                  
1 40032U 14033Y   25149.16592385  .00006773  00000+0  44200-3 0  9995
2 40032  98.0432 120.1058 0010082  48.4254 311.7836 15.08178334595178
PERSEUS-M2              
1 40037U 14033AD  25149.18214534  .00001976  00000+0  19214-3 0  9996
2 40037  97.9555  88.6006 0013510 127.4492 232.7959 14.93688476593924
PERSEUS-M1              
1 40039U 14033AF  25148.56532047  .00002104  00000+0  20433-3 0  9990
2 40039  97.9294  82.9711 0013248 128.1092 232.1324 14.93667728593699
POLYITAN-1              
1 40042U 14033AJ  25149.23114218  .00015011  00000+0  73370-3 0  9994
2 40042  98.1028 138.7305 0011377  48.0694 312.1506 15.18290939595573
TIGRISAT                
1 40043U 14033AK  25148.86094594  .00001893  00000+0  23513-3 0  9994
2 40043  97.7342 304.5198 0050121 253.8749 105.6944 14.82894306588625
AEROCUBE 6A             
1 40045U 14033AM  25148.93030196  .00005738  00000+0  55980-3 0  9997
2 40045  97.6916 317.4860 0042588 216.9970 142.8311 14.92137314589202
AEROCUBE 6B             
1 40046U 14033AN  25148.93408737  .00006107  00000+0  57858-3 0  9995
2 40046  97.6895 316.6003 0041387 210.1692 149.7144 14.93310082589297
CANX-4                  
1 40055U 14034C   25149.05811080  .00001003  00000+0  13933-3 0  9995
2 40055  98.3637   4.3092 0013411 158.9992 201.1772 14.80190663587719
CANX-5                  
1 40056U 14034D   25149.06061615  .00001017  00000+0  14113-3 0  9994
2 40056  98.3640   4.3332 0013415 159.1803 200.9957 14.80204278587719
UKUBE-1                 
1 40074U 14037F   25149.13340284  .00007523  00000+0  53123-3 0  9999
2 40074  98.3932 110.4426 0002992  55.8989 304.2519 15.05255733590627
BRITE-PL2 (HEWELIUSZ)   
1 40119U 14049B   25148.68709280  .00001784  00000+0  17915-3 0  9998
2 40119  97.8894 253.8977 0013352 307.0758  52.9240 14.92510782584050
AEROCUBE 5C             
1 40965U 15058B   25149.11979774  .00002691  00000+0  23884-3 0  9994
2 40965  64.7691  14.7734 0166342 204.1050 155.2214 14.88436295308426
AEROCUBE 7              
1 40966U 15058C   25149.21092662  .00004015  00000+0  32713-3 0  9991
2 40966  64.7650   3.8850 0158233 204.0030 155.3653 14.91664127308628
FOX-1A (AO-85)          
1 40967U 15058D   25149.10663869  .00002390  00000+0  21909-3 0  9992
2 40967  64.7769  29.9162 0162691 199.1993 160.2944 14.87939181 56369
SINOD-D 1               
1 40968U 15058E   25148.95009743  .00003603  00000+0  29972-3 0  9996
2 40968  64.7768  18.4223 0152592 198.2658 161.2940 14.91706389 59263
SNAP-3 ALICE            
1 40970U 15058G   25148.43298572  .00025988  00000+0  10823-2 0  9996
2 40970  64.7669 304.5088 0088637 199.0700 160.7103 15.20098944 57828
LMRST-SAT               
1 40971U 15058H   25149.11070961  .00002487  00000+0  22726-3 0  9998
2 40971  64.7770  25.6209 0164988 200.6460 158.7935 14.87695118 56360
SNAP-3 EDDIE            
1 40972U 15058J   25148.68213929  .00030783  00000+0  12477-2 0  9994
2 40972  64.7590 296.2972 0093726 200.9723 158.7550 15.20512155 59970
PROPCUBE 3              
1 40973U 15058K   25148.32473147  .00003177  00000+0  26843-3 0  9996
2 40973  64.7702  11.7495 0159809 202.7408 156.6573 14.90610161 57366
BISONSAT                
1 40974U 15058L   25147.85265696  .00011853  00000+0  70044-3 0  9994
2 40974  64.7637 329.1594 0123508 201.3986 158.1946 15.05561443 57404
SNAP-3 JIMI             
1 40975U 15058M   25148.83854447  .00005942  00000+0  43340-3 0  9993
2 40975  64.7673 350.6107 0144705 201.8025 157.6894 14.96581264 56592
PROPCUBE 1 (FLORA)      
1 40976U 15058N   25148.65608200  .00001918  00000+0  18538-3 0  9998
2 40976  64.7749  44.5129 0164620 202.4740 156.9104 14.86394711 59057
SINOD-D 3               
1 40977U 15058P   25149.06145111  .00003084  00000+0  26872-3 0  9998
2 40977  64.7741  31.8170 0154560 201.7056 157.7461 14.90092998 57442
HORYU-4                 
1 41340U 16012D   25148.46088537  .00021149  00000+0  57401-3 0  9999
2 41340  30.9960 213.4095 0006306 286.1964  73.7988 15.36347029510925
RAVAN                   
1 41849U 16067B   25149.00547702  .00014360  00000+0  49793-3 0  9990
2 41849  98.0446 357.0594 0007810 276.9314  83.1036 15.29913040468575
CELTEE 1                
1 41850U 16067C   25149.00353342  .00005142  00000+0  28344-3 0  9994
2 41850  98.1065 344.8308 0002503 102.0327 258.1183 15.14484041467630
OPTICUBE 04             
1 41851U 16067D   25148.47150263  .00002982  00000+0  20233-3 0  9990
2 41851  98.0924 335.6468 0015977 340.8047  19.2575 15.07182825467176
AEROCUBE 8D             
1 41852U 16067E   25149.18425660  .00006908  00000+0  34876-3 0  9996
2 41852  98.1098 346.1327 0004547  35.4943 324.6591 15.17454581467706
AEROCUBE 8C             
1 41853U 16067F   25148.92718541  .00006509  00000+0  32774-3 0  9993
2 41853  98.0943 343.6722 0004892 312.6361  47.4458 15.17572541467656
PROMETHEUS 2-1          
1 41854U 16067G   25148.32345770  .00046488  00000+0  90958-3 0  9996
2 41854  98.0772   0.2438 0004714 290.4686  69.6056 15.47275957468513
